NORAD_CAT_ID,OBJECT_NAME,OBJECT_TYPE,EPOCH,MEAN_MOTION,ECCENTRICITY,INCLINATION,RA_OF_ASC_NODE,ARG_OF_PERICENTER,MEAN_ANOMALY,BSTAR,MEAN_MOTION_DOT,MEAN_MOTION_DDOT,TLE_LINE0,TLE_LINE1,TLE_LINE2,SEMIMAJOR_AXIS,PERIOD,APOGEE,PERIGEE,DECAYED
52550.0,STARLINK-3965,PAYLOAD,2023-04-28 19:14:03,15.08866606,0.0001211,53.2115,144.2957,57.7825,302.3284,0.00038024,5.773e-05,0.0,0 STARLINK-3965,1 52550U 22051T   23118.80143216  .00005773  00000-0  38024-3 0  9999,2 52550  53.2115 144.2957 0001211  57.7825 302.3284 15.08866606 53621,6917.799,95.436,540.502,538.826,0.0
52550.0,STARLINK-3965,PAYLOAD,2023-04-29 11:07:55,15.08844023,0.0001479,53.2148,141.3202,69.6183,290.4968,0.00016543,2.346e-05,0.0,0 STARLINK-3965,1 52550U 22051T   23119.46383415  .00002346  00000-0  16543-3 0  9994,2 52550  53.2148 141.3202 0001479  69.6183 290.4968 15.08844023 53651,6917.868,95.437,540.756,538.71,0.0
52550.0,STARLINK-3965,PAYLOAD,2023-04-30 10:58:42,15.08845697,0.0001342,53.2137,136.8585,73.2219,286.892,0.0002148,3.133e-05,0.0,0 STARLINK-3965,1 52550U 22051T   23120.45743419  .00003133  00000-0  21480-3 0  9990,2 52550  53.2137 136.8585 0001342  73.2219 286.8920 15.08845697 53804,6917.863,95.437,540.656,538.8,0.0
52550.0,STARLINK-3965,PAYLOAD,2023-05-01 06:03:20,15.08838044,0.0001321,53.2137,133.289,78.9949,281.1192,0.00011036,1.469e-05,0.0,0 STARLINK-3965,1 52550U 22051T   23121.25231833  .00001469  00000-0  11036-3 0  9997,2 52550  53.2137 133.2890 0001321  78.9949 281.1192 15.08838044 53990,6917.886,95.438,540.665,538.838,0.0
52550.0,STARLINK-3965,PAYLOAD,2023-05-01 07:38:43,15.08837504,0.000131,53.214,132.9916,84.5729,275.5413,0.00011328,1.515e-05,0.0,0 STARLINK-3965,1 52550U 22051T   23121.31855878  .00001515  00000-0  11328-3 0  9991,2 52550  53.2140 132.9916 0001310  84.5729 275.5413 15.08837504 53933,6917.888,95.438,540.659,538.847,0.0
52550.0,STARLINK-3965,PAYLOAD,2023-05-02 10:40:16,15.08843732,0.0001351,53.2144,127.9372,79.36,280.7544,0.00011391,1.526e-05,0.0,0 STARLINK-3965,1 52550U 22051T   23122.44463570  .00001526  00000-0  11391-3 0  9992,2 52550  53.2144 127.9372 0001351  79.3600 280.7544 15.08843732 54172,6917.869,95.437,540.669,538.799,0.0
52550.0,STARLINK-3965,PAYLOAD,2023-05-02 17:01:49,15.08839857,0.0001458,53.215,126.7465,68.9432,291.1716,8.0591e-05,9.95e-06,0.0,0 STARLINK-3965,1 52550U 22051T   23122.70959822  .00000995  00000-0  80591-4 0  9999,2 52550  53.2150 126.7465 0001458  68.9432 291.1716 15.08839857 54141,6917.881,95.438,540.754,538.737,0.0
52550.0,STARLINK-3965,PAYLOAD,2023-05-03 05:44:54,15.08836831,0.0001306,53.2153,124.3687,81.1814,278.9326,9.2307e-05,1.181e-05,0.0,0 STARLINK-3965,1 52550U 22051T   23123.23952228  .00001181  00000-0  92307-4 0  9997,2 52550  53.2153 124.3687 0001306  81.1814 278.9326 15.08836831 54292,6917.89,95.438,540.659,538.852,0.0
52550.0,STARLINK-3965,PAYLOAD,2023-05-03 08:55:40,15.08838223,0.0001288,53.2154,123.7742,81.4915,278.6223,9.7589e-05,1.266e-05,0.0,0 STARLINK-3965,1 52550U 22051T   23123.37200136  .00001266  00000-0  97589-4 0  9997,2 52550  53.2154 123.7742 0001288  81.4915 278.6223 15.08838223 54247,6917.886,95.438,540.642,538.86,0.0
52550.0,STARLINK-3965,PAYLOAD,2023-05-04 08:46:27,15.08842549,0.0001301,53.2155,119.3137,81.5942,278.5197,5.2725e-05,5.51e-06,0.0,0 STARLINK-3965,1 52550U 22051T   23124.36559983  .00000551  00000-0  52725-4 0  9993,2 52550  53.2155 119.3137 0001301  81.5942 278.5197 15.08842549 54463,6917.873,95.437,540.638,538.838,0.0
52550.0,STARLINK-3965,PAYLOAD,2023-05-05 08:37:15,15.08838816,0.0001353,53.2161,114.8536,89.6791,270.4356,7.1001e-05,8.42e-06,0.0,0 STARLINK-3965,1 52550U 22051T   23125.35920348  .00000842  00000-0  71001-4 0  9991,2 52550  53.2161 114.8536 0001353  89.6791 270.4356 15.08838816 54618,6917.884,95.438,540.685,538.813,0.0
52550.0,STARLINK-3965,PAYLOAD,2023-05-05 16:34:11,15.08836259,0.0001316,53.2157,113.3666,84.9279,275.1864,3.9835e-05,3.46e-06,0.0,0 STARLINK-3965,1 52550U 22051T   23125.69040656  .00000346  00000-0  39835-4 0  9991,2 52550  53.2157 113.3666 0001316  84.9279 275.1864 15.08836259 54591,6917.892,95.438,540.667,538.846,0.0
52550.0,STARLINK-3965,PAYLOAD,2023-05-06 08:28:02,15.08843365,0.0001304,53.2158,110.3923,86.833,273.2812,7.9543e-05,9.78e-06,0.0,0 STARLINK-3965,1 52550U 22051T   23126.35280263  .00000978  00000-0  79543-4 0  9996,2 52550  53.2158 110.3923 0001304  86.8330 273.2812 15.08843365 54690,6917.87,95.437,540.637,538.833,0.0
52550.0,STARLINK-3965,PAYLOAD,2023-05-07 01:57:15,15.08851114,0.0001269,53.2161,107.1209,87.7168,272.397,0.00015391,2.163e-05,0.0,0 STARLINK-3965,1 52550U 22051T   23127.08143474  .00002163  00000-0  15391-3 0  9997,2 52550  53.2161 107.1209 0001269  87.7168 272.3970 15.08851114 54870,6917.846,95.437,540.589,538.834,0.0
52550.0,STARLINK-3965,PAYLOAD,2023-05-07 05:08:01,15.08854641,0.0001261,53.2162,106.5257,90.2174,269.8962,0.00018501,2.659e-05,0.0,0 STARLINK-3965,1 52550U 22051T   23127.21391146  .00002659  00000-0  18501-3 0  9999,2 52550  53.2162 106.5257 0001261  90.2174 269.8962 15.08854641 54820,6917.836,95.437,540.573,538.828,0.0
52550.0,STARLINK-3965,PAYLOAD,2023-05-08 04:58:50,15.08834172,0.000109,53.2163,102.0656,93.8583,266.2534,2.2862e-05,7.6e-07,0.0,0 STARLINK-3965,1 52550U 22051T   23128.20753179  .00000076  00000-0  22862-4 0  9994,2 52550  53.2163 102.0656 0001090  93.8583 266.2534 15.08834172 55046,6917.898,95.438,540.517,539.009,0.0
52550.0,STARLINK-3965,PAYLOAD,2023-05-09 04:49:36,15.08850318,0.0001132,53.2162,97.6073,93.2623,266.8498,0.0001642,2.327e-05,0.0,0 STARLINK-3965,1 52550U 22051T   23129.20112228  .00002327  00000-0  16420-3 0  9992,2 52550  53.2162  97.6073 0001132  93.2623 266.8498 15.08850318 55127,6917.849,95.437,540.497,538.931,0.0
52550.0,STARLINK-3965,PAYLOAD,2023-05-10 04:40:24,15.08842099,0.0001172,53.2163,93.149,106.5361,253.576,0.00019554,2.826e-05,0.0,0 STARLINK-3965,1 52550U 22051T   23130.19472762  .00002826  00000-0  19554-3 0  9999,2 52550  53.2163  93.1490 0001172 106.5361 253.5760 15.08842099 55271,6917.874,95.437,540.55,538.928,0.0
52550.0,STARLINK-3965,PAYLOAD,2023-05-11 04:31:11,15.08845258,0.0001114,53.217,88.6874,98.2682,261.8436,4.6267e-05,4.49e-06,0.0,0 STARLINK-3965,1 52550U 22051T   23131.18832570  .00000449  00000-0  46267-4 0  9997,2 52550  53.2170  88.6874 0001114  98.2682 261.8436 15.08845258 55422,6917.864,95.437,540.5,538.959,0.0
52550.0,STARLINK-3965,PAYLOAD,2023-05-12 04:21:59,15.0883676,0.0001287,53.2169,84.2257,94.0817,266.0323,-2.9097e-05,-7.51e-06,0.0,0 STARLINK-3965,1 52550U 22051T   23132.18193436 -.00000751  00000-0 -29097-4 0  9999,2 52550  53.2169  84.2257 0001287  94.0817 266.0323 15.08836760 55578,6917.89,95.438,540.646,538.865,0.0
52550.0,STARLINK-3965,PAYLOAD,2023-05-13 04:12:45,15.0885445,0.0001317,53.217,79.7663,87.2599,272.8544,0.00031528,4.735e-05,0.0,0 STARLINK-3965,1 52550U 22051T   23133.17552672  .00004735  00000-0  31528-3 0  9995,2 52550  53.2170  79.7663 0001317  87.2599 272.8544 15.08854450 55795,6917.836,95.437,540.612,538.79,0.0
52550.0,STARLINK-3965,PAYLOAD,2023-05-14 02:28:10,15.08839854,0.0001329,53.2172,75.6013,89.6336,270.4809,0.00010488,1.382e-05,0.0,0 STARLINK-3965,1 52550U 22051T   23134.10289555  .00001382  00000-0  10488-3 0  9993,2 52550  53.2172  75.6013 0001329  89.6336 270.4809 15.08839854 55934,6917.881,95.438,540.665,538.826,0.0
52550.0,STARLINK-3965,PAYLOAD,2023-05-15 02:18:56,15.08848785,0.0001469,53.2166,71.1407,88.7797,271.3363,0.00017929,2.567e-05,0.0,0 STARLINK-3965,1 52550U 22051T   23135.09649108  .00002567  00000-0  17929-3 0  9999,2 52550  53.2166  71.1407 0001469  88.7797 271.3363 15.08848785 56019,6917.854,95.437,540.735,538.702,0.0
52550.0,STARLINK-3965,PAYLOAD,2023-05-16 05:20:30,15.08839979,0.0001619,53.2172,66.0836,95.5943,264.5234,8.928e-05,1.133e-05,0.0,0 STARLINK-3965,1 52550U 22051T   23136.22257484  .00001133  00000-0  89280-4 0  9995,2 52550  53.2172  66.0836 0001619  95.5943 264.5234 15.08839979 56253,6917.88,95.438,540.865,538.625,0.0
52550.0,STARLINK-3965,PAYLOAD,2023-05-17 05:11:17,15.08844634,0.0001412,53.2175,61.6247,90.9664,269.149,3.6078e-05,2.86e-06,0.0,0 STARLINK-3965,1 52550U 22051T   23137.21617288  .00000286  00000-0  36078-4 0  9992,2 52550  53.2175  61.6247 0001412  90.9664 269.1490 15.08844634 56331,6917.866,95.437,540.708,538.754,0.0
52550.0,STARLINK-3965,PAYLOAD,2023-05-18 01:51:18,15.08837309,0.0001356,53.2175,57.7608,101.2646,258.8499,3.9186e-05,3.36e-06,0.0,0 STARLINK-3965,1 52550U 22051T   23138.07730032  .00000336  00000-0  39186-4 0  9999,2 52550  53.2175  57.7608 0001356 101.2646 258.8499 15.08837309 56538,6917.889,95.438,540.692,538.816,0.0
52550.0,STARLINK-3965,PAYLOAD,2023-05-18 03:26:41,15.08837869,0.0001383,53.2178,57.4631,100.745,259.3698,5.4638e-05,5.82e-06,0.0,0 STARLINK-3965,1 52550U 22051T   23138.14353946  .00000582  00000-0  54638-4 0  9994,2 52550  53.2178  57.4631 0001383 100.7450 259.3698 15.08837869 56472,6917.887,95.438,540.709,538.795,0.0
52550.0,STARLINK-3965,PAYLOAD,2023-05-18 17:45:10,15.08834282,0.0001358,53.218,54.7867,98.0925,262.0222,7.7786e-05,9.5e-06,0.0,0 STARLINK-3965,1 52550U 22051T   23138.73970275  .00000950  00000-0  77786-4 0  9997,2 52550  53.2180  54.7867 0001358  98.0925 262.0222 15.08834282 56564,6917.898,95.438,540.702,538.823,0.0
52550.0,STARLINK-3965,PAYLOAD,2023-05-19 03:17:28,15.08842766,0.0001404,53.2178,53.0028,104.5063,255.6085,5.3203e-05,5.59e-06,0.0,0 STARLINK-3965,1 52550U 22051T   23139.13713911  .00000559  00000-0  53203-4 0  9997,2 52550  53.2178  53.0028 0001404 104.5063 255.6085 15.08842766 56695,6917.872,95.437,540.708,538.766,0.0
52550.0,STARLINK-3965,PAYLOAD,2023-05-19 20:46:43,15.08840857,0.0001345,53.2178,49.7317,95.6379,264.4766,9.3422e-05,1.199e-05,0.0,0 STARLINK-3965,1 52550U 22051T   23139.86578030  .00001199  00000-0  93422-4 0  9996,2 52550  53.2178  49.7317 0001345  95.6379 264.4766 15.08840857 56730,6917.878,95.438,540.673,538.812,0.0
